IRIDIUM 171             
1 43929U 19002H   24259.52355022  .00000417  00000+0  14197-3 0  9991
2 43929  86.3920 261.0940 0002433  96.8398 263.3074 14.34216414297276
IRIDIUM 170             
1 43930U 19002J   24259.92889374  .00001533  00000+0  23924-3 0  9997
2 43930  86.6039 260.7278 0002678  87.6271 272.5253 14.72244938305209
IRIDIUM 167             
1 43931U 19002K   24259.72651524  .00000795  00000+0  27689-3 0  9991
2 43931  86.3911 260.7900 0002239  92.4296 267.7157 14.34218399297302
IRIDIUM 181             
1 56726U 23068S   24260.18906423  .00001301  00000+0  37850-3 0  9992
2 56726  86.8643 318.7870 0002236 100.4746 259.6708 14.43580400 70263
IRIDIUM 177             
1 56727U 23068T   24259.74376912  .00001994  00000+0  25917-3 0  9996
2 56727  86.1919 272.3529 0001968  91.2107 268.9340 14.80190128 71775
IRIDIUM 174             
1 56728U 23068U   24259.60314596  .00001921  00000+0  24962-3 0  9991
2 56728  86.1925 272.5306 0002122  94.1991 265.9472 14.80173169 71751
IRIDIUM 178             
1 56729U 23068V   24259.59770408  .00004305  00000+0  56336-3 0  9997
2 56729  86.5745 294.2979 0002442  94.0042 266.1458 14.80207551 71754
IRIDIUM 179             
1 56730U 23068W   24260.13312157  .00004252  00000+0  55619-3 0  9998
2 56730  86.6761 299.3528 0001945  89.8618 270.2826 14.80223582 71835
